{
  "type": "FeatureCollection",
  "features": [
    {
      "type": "Feature",
      "properties": {
        "norad_id": 34121,
        "name": "COSMOS 2251 DEB",
        "group": "cosmos-2251-debris",
        "lat": -68.90619325373251,
        "lon": -56.25024299219413,
        "alt_km": 765.3729444825931,
        "timestamp": "2025-12-25T07:00:34.442006+00:00",
        "meta_object_name": "COSMOS 2251 DEB",
        "meta_object_id": "1993-036KS",
        "meta_epoch": "2025-12-24T16:33:12.674592",
        "meta_mean_motion": 13.91973182,
        "meta_eccentricity": 0.02410219,
        "meta_inclination": 73.9923,
        "meta_ra_of_asc_node": 76.6915,
        "meta_arg_of_pericenter": 279.6475,
        "meta_mean_anomaly": 200.2437,
        "meta_ephemeris_type": 0,
        "meta_classification_type": "U",
        "meta_norad_cat_id": 34121,
        "meta_element_set_no": 999,
        "meta_rev_at_epoch": 85291,
        "meta_bstar": 0.0012623328,
        "meta_mean_motion_dot": 2.017e-05,
        "meta_mean_motion_ddot": 0,
        "tle_line1": "1 34121U 93036KS  25358.68973003  .00002017  00000+0  12623-2 0  9996",
        "tle_line2": "2 34121  73.9923  76.6915 0241021 279.6475 200.2437 13.91973182852917"
      },
      "geometry": {
        "type": "Point",
        "coordinates": [
          -56.25024299219413,
          -68.90619325373251
        ]
      }
    },
    {
      "type": "Feature",
      "properties": {
        "norad_id": 34122,
        "name": "COSMOS 2251 DEB",
        "group": "cosmos-2251-debris",
        "lat": -28.746925915494284,
        "lon": -76.4823978374072,
        "alt_km": 726.2659432407345,
        "timestamp": "2025-12-25T07:00:34.442016+00:00",
        "meta_object_name": "COSMOS 2251 DEB",
        "meta_object_id": "1993-036KT",
        "meta_epoch": "2025-12-24T17:29:51.170208",
        "meta_mean_motion": 14.6518112,
        "meta_eccentricity": 0.0085061,
        "meta_inclination": 74.0363,
        "meta_ra_of_asc_node": 95.5664,
        "meta_arg_of_pericenter": 348.9969,
        "meta_mean_anomaly": 133.1578,
        "meta_ephemeris_type": 0,
        "meta_classification_type": "U",
        "meta_norad_cat_id": 34122,
        "meta_element_set_no": 999,
        "meta_rev_at_epoch": 88860,
        "meta_bstar": 0.0010514303,
        "meta_mean_motion_dot": 5.939e-05,
        "meta_mean_motion_ddot": 0,
        "tle_line1": "1 34122U 93036KT  25358.72906447  .00005939  00000+0  10514-2 0  9993",
        "tle_line2": "2 34122  74.0363  95.5664 0085061 348.9969 133.1578 14.65181120888607"
      },
      "geometry": {
        "type": "Point",
        "coordinates": [
          -76.4823978374072,
          -28.746925915494284
        ]
      }
    },
    {
      "type": "Feature",
      "properties": {
        "norad_id": 34127,
        "name": "COSMOS 2251 DEB",
        "group": "cosmos-2251-debris",
        "lat": 45.24732436917757,
        "lon": 37.79540783193436,
        "alt_km": 863.057041500635,
        "timestamp": "2025-12-25T07:00:34.442027+00:00",
        "meta_object_name": "COSMOS 2251 DEB",
        "meta_object_id": "1993-036KY",
        "meta_epoch": "2025-12-24T12:55:14.413728",
        "meta_mean_motion": 14.3164566,
        "meta_eccentricity": 0.01146434,
        "meta_inclination": 74.1798,
        "meta_ra_of_asc_node": 22.5388,
        "meta_arg_of_pericenter": 220.1374,
        "meta_mean_anomaly": 264.7473,
        "meta_ephemeris_type": 0,
        "meta_classification_type": "U",
        "meta_norad_cat_id": 34127,
        "meta_element_set_no": 999,
        "meta_rev_at_epoch": 86940,
        "meta_bstar": 0.001520938,
        "meta_mean_motion_dot": 4.333e-05,
        "meta_mean_motion_ddot": 0,
        "tle_line1": "1 34127U 93036KY  25358.53836127  .00004333  00000+0  15209-2 0  9997",
        "tle_line2": "2 34127  74.1798  22.5388 0114643 220.1374 264.7473 14.31645660869407"
      },
      "geometry": {
        "type": "Point",
        "coordinates": [
          37.79540783193436,
          45.24732436917757
        ]
      }
    },
    {
      "type": "Feature",
      "properties": {
        "norad_id": 34128,
        "name": "COSMOS 2251 DEB",
        "group": "cosmos-2251-debris",
        "lat": 13.914720501753045,
        "lon": 87.02200336396453,
        "alt_km": 577.361493255511,
        "timestamp": "2025-12-25T07:00:34.442038+00:00",
        "meta_object_name": "COSMOS 2251 DEB",
        "meta_object_id": "1993-036KZ",
        "meta_epoch": "2025-12-24T20:58:40.497312",
        "meta_mean_motion": 15.01612252,
        "meta_eccentricity": 0.00259906,
        "meta_inclination": 73.999,
        "meta_ra_of_asc_node": 271.952,
        "meta_arg_of_pericenter": 21.2594,
        "meta_mean_anomaly": 45.372,
        "meta_ephemeris_type": 0,
        "meta_classification_type": "U",
        "meta_norad_cat_id": 34128,
        "meta_element_set_no": 999,
        "meta_rev_at_epoch": 89349,
        "meta_bstar": 0.0014650244,
        "meta_mean_motion_dot": 0.00019158,
        "meta_mean_motion_ddot": 0,
        "tle_line1": "1 34128U 93036KZ  25358.87407983  .00019158  00000+0  14650-2 0  9999",
        "tle_line2": "2 34128  73.9990 271.9520 0025990  21.2594  45.3720 15.01612252893490"
      },
      "geometry": {
        "type": "Point",
        "coordinates": [
          87.02200336396453,
          13.914720501753045
        ]
      }
    },
    {
      "type": "Feature",
      "properties": {
        "norad_id": 34129,
        "name": "COSMOS 2251 DEB",
        "group": "cosmos-2251-debris",
        "lat": 8.209101675141437,
        "lon": -42.67303304423204,
        "alt_km": 622.1247828821524,
        "timestamp": "2025-12-25T07:00:34.442048+00:00",
        "meta_object_name": "COSMOS 2251 DEB",
        "meta_object_id": "1993-036LA",
        "meta_epoch": "2025-12-24T21:12:38.879712",
        "meta_mean_motion": 14.75955009,
        "meta_eccentricity": 0.0033513,
        "meta_inclination": 74.0359,
        "meta_ra_of_asc_node": 315.7589,
        "meta_arg_of_pericenter": 33.644,
        "meta_mean_anomaly": 326.6852,
        "meta_ephemeris_type": 0,
        "meta_classification_type": "U",
        "meta_norad_cat_id": 34129,
        "meta_element_set_no": 999,
        "meta_rev_at_epoch": 61477,
        "meta_bstar": 0.0016543775,
        "meta_mean_motion_dot": 0.00011471,
        "meta_mean_motion_ddot": 0,
        "tle_line1": "1 34129U 93036LA  25358.88378333  .00011471  00000+0  16544-2 0  9991",
        "tle_line2": "2 34129  74.0359 315.7589 0033513  33.6440 326.6852 14.75955009614774"
      },
      "geometry": {
        "type": "Point",
        "coordinates": [
          -42.67303304423204,
          8.209101675141437
        ]
      }
    },
    {
      "type": "Feature",
      "properties": {
        "norad_id": 34136,
        "name": "COSMOS 2251 DEB",
        "group": "cosmos-2251-debris",
        "lat": -4.261067129562035,
        "lon": 16.651988616419136,
        "alt_km": 678.6229109354017,
        "timestamp": "2025-12-25T07:00:34.442058+00:00",
        "meta_object_name": "COSMOS 2251 DEB",
        "meta_object_id": "1993-036LH",
        "meta_epoch": "2025-12-24T12:05:28.070304",
        "meta_mean_motion": 14.8015032,
        "meta_eccentricity": 0.00850269,
        "meta_inclination": 74.0198,
        "meta_ra_of_asc_node": 19.4295,
        "meta_arg_of_pericenter": 139.1728,
        "meta_mean_anomaly": 338.5493,
        "meta_ephemeris_type": 0,
        "meta_classification_type": "U",
        "meta_norad_cat_id": 34136,
        "meta_element_set_no": 999,
        "meta_rev_at_epoch": 90184,
        "meta_bstar": 0.00037682536,
        "meta_mean_motion_dot": 3.007e-05,
        "meta_mean_motion_ddot": 0,
        "tle_line1": "1 34136U 93036LH  25358.50379711  .00003007  00000+0  37683-3 0  9993",
        "tle_line2": "2 34136  74.0198  19.4295 0085026 139.1728 338.5493 14.80150320901841"
      },
      "geometry": {
        "type": "Point",
        "coordinates": [
          16.651988616419136,
          -4.261067129562035
        ]
      }
    },
    {
      "type": "Feature",
      "properties": {
        "norad_id": 34139,
        "name": "COSMOS 2251 DEB",
        "group": "cosmos-2251-debris",
        "lat": -28.839072228242017,
        "lon": 59.20858744163805,
        "alt_km": 700.614073830543,
        "timestamp": "2025-12-25T07:00:34.442068+00:00",
        "meta_object_name": "COSMOS 2251 DEB",
        "meta_object_id": "1993-036LL",
        "meta_epoch": "2025-12-24T17:10:19.282944",
        "meta_mean_motion": 14.59210163,
        "meta_eccentricity": 0.00424254,
        "meta_inclination": 74.0294,
        "meta_ra_of_asc_node": 231.2344,
        "meta_arg_of_pericenter": 300.3247,
        "meta_mean_anomaly": 122.6243,
        "meta_ephemeris_type": 0,
        "meta_classification_type": "U",
        "meta_norad_cat_id": 34139,
        "meta_element_set_no": 999,
        "meta_rev_at_epoch": 88324,
        "meta_bstar": 0.0012978966,
        "meta_mean_motion_dot": 6.174e-05,
        "meta_mean_motion_ddot": 0,
        "tle_line1": "1 34139U 93036LL  25358.71550096  .00006174  00000+0  12979-2 0  9994",
        "tle_line2": "2 34139  74.0294 231.2344 0042425 300.3247 122.6243 14.59210163883240"
      },
      "geometry": {
        "type": "Point",
        "coordinates": [
          59.20858744163805,
          -28.839072228242017
        ]
      }
    }
  ]
}